MESON-1                 
1 59131U 24043AK  26068.90019075  .00008544  00000+0  29748-3 0  9998
2 59131  97.5469 205.2839 0009545 227.1432 132.9007 15.29893494111890
STARLINK-35615          
1 66257U 25245Z   26068.90677539  .00024033  00000+0  82070-3 0  9993
2 66257  53.1574 282.6068 0000785  87.6641 272.4449 15.30209120 21296
